KAZEOSAT 2              
1 40010U 14033A   26159.47317016  .00000610  00000+0  76564-4 0  9996
2 40010  97.5415 359.5453 0008758 359.2642   0.8559 14.85460846647663
HODOYOSHI-4             
1 40011U 14033B   26159.49453691  .00000995  00000+0  11331-3 0  9995
2 40011  97.5459 344.7368 0023274 338.4426  21.5809 14.88109245647510
DEIMOS-2                
1 40013U 14033D   26159.47460892  .00002221  00000+0  21506-3 0  9995
2 40013  97.5838  34.2687 0002040  61.2058 298.9367 14.93704996636425
HODOYOSHI-3             
1 40015U 14033F   26159.42768853  .00001152  00000+0  13864-3 0  9990
2 40015  97.6412 322.8215 0033464  25.9244 334.3640 14.85370955646321
SPOT 7                  
1 40053U 14034A   26159.48344990  .00000536  00000+0  11867-3 0  9997
2 40053  98.0627 222.1993 0001190  84.9097 275.2240 14.60951637635864
SKYSAT-B                
1 40072U 14037D   26159.45063146  .00001435  00000+0  16308-3 0  9993
2 40072  98.3833 117.9180 0004555 317.6686  42.4177 14.88005577644668
WORLDVIEW-3 (WV-3)      
1 40115U 14048A   26159.47526310  .00000858  00000+0  10685-3 0  9992
2 40115  97.8566 234.4283 0001648  39.2521 320.8813 14.85007999640615
GAOFEN-2                
1 40118U 14049A   26159.52766508  .00000390  00000+0  57360-4 0  9990
2 40118  98.0107 223.7429 0005883 261.6339  98.4206 14.80888793637959
YAOGAN-21               
1 40143U 14053A   26159.50871575  .00010113  00000+0  39232-3 0  9993
2 40143  97.1481 200.1180 0009719 117.8848 242.3377 15.26251911653633
YAOGAN-22               
1 40275U 14063A   26159.36376558 -.00000002  00000+0  12017-3 0  9994
2 40275 100.7713 310.4909 0006142 205.4231 154.6579 13.15530937558658
ASNARO                  
1 40298U 14070A   26159.46592475  .00007138  00000+0  34111-3 0  9991
2 40298  97.3449 235.8168 0004698 193.3863 166.7248 15.19307087642685
YAOGAN-24               
1 40310U 14072A   26159.54162425  .00000776  00000+0  11969-3 0  9992
2 40310  98.1480 296.8074 0012693 294.3934  65.5950 14.76212175622445
CBERS 4                 
1 40336U 14079A   26159.53356812  .00000325  00000+0  12757-3 0  9997
2 40336  98.3532 216.6366 0002057  71.3408 288.8001 14.35507785602713
YAOGAN-26               
1 40362U 14088A   26159.53160891  .00019706  00000+0  39132-3 0  9995
2 40362  97.0645 159.9461 0006558  86.2440 273.9560 15.47000532636364
SMAP                    
1 40376U 15003A   26159.46445177  .00000451  00000+0  96327-4 0  9990
2 40376  98.1276 166.6826 0001272  93.2702 266.8646 14.63359095606347
KOMPSAT-3A              
1 40536U 15014A   26159.48333440  .00020325  00000+0  29948-3 0  9997
2 40536  97.6889 150.2118 0055771 206.1195 153.7243 15.53597178620468
SENTINEL-2A             
1 40697U 15028A   26159.47342435  .00000050  00000+0  35628-4 0  9999
2 40697  98.5678 234.4486 0001067  87.5950 272.5355 14.30821265572487
GAOFEN-8                
1 40701U 15030A   26159.54292850  .00018057  00000+0  37595-3 0  9991
2 40701  97.6916 352.3967 0008091 218.7030 141.3639 15.45638783610112
CARBONITE 1 (CBNT-1)    
1 40718U 15032D   26159.48195619  .00001449  00000+0  18186-3 0  9991
2 40718  97.6510 337.9136 0013773 329.0217  31.0183 14.83561405588056
YAOGAN-27               
1 40878U 15040A   26159.51422600 -.00000383  00000+0 -89765-3 0  9993
2 40878 100.1155 146.2737 0007498 232.3246 127.7188 13.16068352516520
GAOFEN-9 01             
1 40894U 15047A   26159.49284623  .00001001  00000+0  12900-3 0  9999
2 40894  97.6283 195.5824 0027729 165.5649 194.6364 14.82867439578903
YAOGAN-28               
1 41026U 15064A   26159.54382309  .00007289  00000+0  27484-3 0  9999
2 41026  97.3063 297.9832 0009856 214.6265 145.4333 15.27308423589366
YAOGAN-29               
1 41038U 15069A   26159.54187809  .00000122  00000+0  21653-4 0  9997
2 41038  98.0033 188.1612 0002951  66.7415 293.4108 14.83077548569345
KENT RIDGE 1            
1 41167U 15077B   26159.12626532  .00004648  00000+0  15976-3 0  9991
2 41167  14.9808 333.3719 0008250 110.5670 249.5537 15.23078072579714
GAOFEN-4                
1 41194U 15083A   26159.59771123 -.00000319  00000+0  00000+0 0  9996
2 41194   0.3341  83.8441 0004166 111.8448  22.1741  1.00273550 38443
JASON-3                 
1 41240U 16002A   26159.45894699 -.00000037  00000+0  98422-4 0  9996
2 41240  66.0391 144.1853 0008602 273.1224  86.8810 12.87627837486124
SENTINEL-3A             
1 41335U 16011A   26159.45033155  .00000104  00000+0  60985-4 0  9990
2 41335  98.6250 226.9591 0001351 104.4317 255.7013 14.26737622536818
ZIYUAN 3-02 (ZY 3-02)   
1 41556U 16033A   26159.50815844  .00005036  00000+0  22717-3 0  9997
2 41556  97.3834 235.4483 0011623 324.3163  35.7295 15.21397533556669
CARTOSAT-2C             
1 41599U 16040A   26159.49825025  .00005191  00000+0  24921-3 0  9993
2 41599  97.4486 219.5951 0009811 158.8751 201.2891 15.19252620552394
SKYSAT-C1               
1 41601U 16040C   26159.03199683  .00009867  00000+0  28217-3 0  9997
2 41601  96.9568 191.2490 0004148  75.7609 284.4097 15.36146761556464
LAPAN-A3                
1 41603U 16040E   26159.51016360  .00003425  00000+0  10943-3 0  9993
2 41603  97.1489 155.9414 0011785  53.8014 306.4316 15.33049801553488
