OBJECT_NAME,OBJECT_ID,EPOCH,MEAN_MOTION,ECCENTRICITY,INCLINATION,RA_OF_ASC_NODE,ARG_OF_PERICENTER,MEAN_ANOMALY,EPHEMERIS_TYPE,CLASSIFICATION_TYPE,NORAD_CAT_ID,ELEMENT_SET_NO,REV_AT_EPOCH,BSTAR,MEAN_MOTION_DOT,MEAN_MOTION_DDOT
KAZEOSAT 2,2014-033A,2026-06-08T11:21:21.901824,14.85460846,.0008758,97.5415,359.5453,359.2642,0.8559,0,U,40010,999,64766,.76564E-4,.61E-5,0
HODOYOSHI-4,2014-033B,2026-06-08T11:52:07.989024,14.88109245,.0023274,97.5459,344.7368,338.4426,21.5809,0,U,40011,999,64751,.11331E-3,.995E-5,0
DEIMOS-2,2014-033D,2026-06-08T11:23:26.210688,14.93704996,.000204,97.5838,34.2687,61.2058,298.9367,0,U,40013,999,63642,.21506E-3,.2221E-4,0
HODOYOSHI-3,2014-033F,2026-06-08T10:15:52.288992,14.85370955,.0033464,97.6412,322.8215,25.9244,334.3640,0,U,40015,999,64632,.13864E-3,.1152E-4,0
SPOT 7,2014-034A,2026-06-08T11:36:10.071360,14.60951637,.000119,98.0627,222.1993,84.9097,275.2240,0,U,40053,999,63586,.11867E-3,.536E-5,0
SKYSAT-B,2014-037D,2026-06-08T10:48:54.558144,14.88005577,.0004555,98.3833,117.9180,317.6686,42.4177,0,U,40072,999,64466,.16308E-3,.1435E-4,0
WORLDVIEW-3 (WV-3),2014-048A,2026-06-08T11:24:22.731840,14.85007999,.0001648,97.8566,234.4283,39.2521,320.8813,0,U,40115,999,64061,.10685E-3,.858E-5,0
GAOFEN-2,2014-049A,2026-06-08T12:39:50.262912,14.80888793,.0005883,98.0107,223.7429,261.6339,98.4206,0,U,40118,999,63795,.5736E-4,.39E-5,0
YAOGAN-21,2014-053A,2026-06-08T12:12:33.040800,15.26251911,.0009719,97.1481,200.1180,117.8848,242.3377,0,U,40143,999,65363,.39232E-3,.10113E-3,0
YAOGAN-22,2014-063A,2026-06-08T08:43:49.346112,13.15530937,.0006142,100.7713,310.4909,205.4231,154.6579,0,U,40275,999,55865,.12017E-3,-.2E-7,0
ASNARO,2014-070A,2026-06-08T11:10:55.898400,15.19307087,.0004698,97.3449,235.8168,193.3863,166.7248,0,U,40298,999,64268,.34111E-3,.7138E-4,0
YAOGAN-24,2014-072A,2026-06-08T12:59:56.335200,14.76212175,.0012693,98.1480,296.8074,294.3934,65.5950,0,U,40310,999,62244,.11969E-3,.776E-5,0
CBERS 4,2014-079A,2026-06-08T12:48:20.285568,14.35507785,.0002057,98.3532,216.6366,71.3408,288.8001,0,U,40336,999,60271,.12757E-3,.325E-5,0
YAOGAN-26,2014-088A,2026-06-08T12:45:31.009824,15.47000532,.0006558,97.0645,159.9461,86.2440,273.9560,0,U,40362,999,63636,.39132E-3,.19706E-3,0
SMAP,2015-003A,2026-06-08T11:08:48.632928,14.63359095,.0001272,98.1276,166.6826,93.2702,266.8646,0,U,40376,999,60634,.96327E-4,.451E-5,0
KOMPSAT-3A,2015-014A,2026-06-08T11:36:00.092160,15.53597178,.0055771,97.6889,150.2118,206.1195,153.7243,0,U,40536,999,62046,.29948E-3,.20325E-3,0
SENTINEL-2A,2015-028A,2026-06-08T11:21:43.863840,14.30821265,.0001067,98.5678,234.4486,87.5950,272.5355,0,U,40697,999,57248,.35628E-4,.5E-6,0
GAOFEN-8,2015-030A,2026-06-08T13:01:49.022400,15.45638783,.0008091,97.6916,352.3967,218.7030,141.3639,0,U,40701,999,61011,.37595E-3,.18057E-3,0
CARBONITE 1 (CBNT-1),2015-032D,2026-06-08T11:34:01.014816,14.83561405,.0013773,97.6510,337.9136,329.0217,31.0183,0,U,40718,999,58805,.18186E-3,.1449E-4,0
YAOGAN-27,2015-040A,2026-06-08T12:20:29.126400,13.16068352,.0007498,100.1155,146.2737,232.3246,127.7188,0,U,40878,999,51652,-.89765E-3,-.383E-5,0
GAOFEN-9 01,2015-047A,2026-06-08T11:49:41.914272,14.82867439,.0027729,97.6283,195.5824,165.5649,194.6364,0,U,40894,999,57890,.129E-3,.1001E-4,0
YAOGAN-28,2015-064A,2026-06-08T13:03:06.314976,15.27308423,.0009856,97.3063,297.9832,214.6265,145.4333,0,U,41026,999,58936,.27484E-3,.7289E-4,0
YAOGAN-29,2015-069A,2026-06-08T13:00:18.266976,14.83077548,.0002951,98.0033,188.1612,66.7415,293.4108,0,U,41038,999,56934,.21653E-4,.122E-5,0
KENT RIDGE 1,2015-077B,2026-06-08T03:01:49.323648,15.23078072,.00082508,14.9808,333.3719,110.5670,249.5537,0,U,41167,999,57971,.15975572E-3,.4648E-4,0
GAOFEN-4,2015-083A,2026-06-08T14:20:42.250272,1.00273550,.0004166,0.3341,83.8441,111.8448,22.1741,0,U,41194,999,3844,0,-.319E-5,0
JASON-3,2016-002A,2026-06-08T11:00:53.019936,12.87627837,.0008602,66.0391,144.1853,273.1224,86.8810,0,U,41240,999,48612,.98422E-4,-.37E-6,0
SENTINEL-3A,2016-011A,2026-06-08T10:48:28.645920,14.26737622,.0001351,98.6250,226.9591,104.4317,255.7013,0,U,41335,999,53681,.60985E-4,.104E-5,0
ZIYUAN 3-02 (ZY 3-02),2016-033A,2026-06-08T12:11:44.889216,15.21397533,.0011623,97.3834,235.4483,324.3163,35.7295,0,U,41556,999,55666,.22717E-3,.5036E-4,0
CARTOSAT-2C,2016-040A,2026-06-08T11:57:28.821600,15.19252620,.0009811,97.4486,219.5951,158.8751,201.2891,0,U,41599,999,55239,.24921E-3,.5191E-4,0
SKYSAT-C1,2016-040C,2026-06-08T00:46:04.526112,15.36146761,.00041489,96.9568,191.2490,75.7609,284.4097,0,U,41601,999,55646,.28216962E-3,.9867E-4,0
LAPAN-A3,2016-040E,2026-06-08T12:14:38.135040,15.33049801,.0011785,97.1489,155.9414,53.8014,306.4316,0,U,41603,999,55348,.10943E-3,.3425E-4,0
